{
  "type": "FeatureCollection",
  "features": [
    {
      "type": "Feature",
      "properties": {
        "norad_id": 55973,
        "name": "TIANMU-1 03",
        "group": "weather",
        "lat": -78.79646054457183,
        "lon": -58.162629982222974,
        "alt_km": 450.7458777507072,
        "timestamp": "2025-12-26T13:39:18.603698+00:00",
        "meta_object_name": "TIANMU-1 03",
        "meta_object_id": "2023-039A",
        "meta_epoch": "2025-12-26T06:17:26.607264",
        "meta_mean_motion": 15.4132082,
        "meta_eccentricity": 0.00037083,
        "meta_inclination": 97.5115,
        "meta_ra_of_asc_node": 163.2949,
        "meta_arg_of_pericenter": 21.3489,
        "meta_mean_anomaly": 338.7911,
        "meta_ephemeris_type": 0,
        "meta_classification_type": "U",
        "meta_norad_cat_id": 55973,
        "meta_element_set_no": 999,
        "meta_rev_at_epoch": 15414,
        "meta_bstar": 0.00039445158,
        "meta_mean_motion_dot": 0.00016368,
        "meta_mean_motion_ddot": 0,
        "tle_line1": "1 55973U 23039A   25360.26211351  .00016368  00000+0  39445-3 0  9994",
        "tle_line2": "2 55973  97.5115 163.2949 0003708  21.3489 338.7911 15.41320820154141"
      },
      "geometry": {
        "type": "Point",
        "coordinates": [
          -58.162629982222974,
          -78.79646054457183
        ]
      }
    },
    {
      "type": "Feature",
      "properties": {
        "norad_id": 55974,
        "name": "TIANMU-1 04",
        "group": "weather",
        "lat": 32.18526602655415,
        "lon": 158.03669531700976,
        "alt_km": 436.6072085080732,
        "timestamp": "2025-12-26T13:39:18.603708+00:00",
        "meta_object_name": "TIANMU-1 04",
        "meta_object_id": "2023-039B",
        "meta_epoch": "2025-12-26T07:17:01.401216",
        "meta_mean_motion": 15.4166669,
        "meta_eccentricity": 0.000431,
        "meta_inclination": 97.5047,
        "meta_ra_of_asc_node": 162.5231,
        "meta_arg_of_pericenter": 14.2534,
        "meta_mean_anomaly": 345.8833,
        "meta_ephemeris_type": 0,
        "meta_classification_type": "U",
        "meta_norad_cat_id": 55974,
        "meta_element_set_no": 999,
        "meta_rev_at_epoch": 15415,
        "meta_bstar": 0.00038424967,
        "meta_mean_motion_dot": 0.00016128,
        "meta_mean_motion_ddot": 0,
        "tle_line1": "1 55974U 23039B   25360.30348844  .00016128  00000+0  38425-3 0  9999",
        "tle_line2": "2 55974  97.5047 162.5231 0004310  14.2534 345.8833 15.41666690154155"
      },
      "geometry": {
        "type": "Point",
        "coordinates": [
          158.03669531700976,
          32.18526602655415
        ]
      }
    },
    {
      "type": "Feature",
      "properties": {
        "norad_id": 55975,
        "name": "TIANMU-1 05",
        "group": "weather",
        "lat": 44.84983862546879,
        "lon": 155.74856797907023,
        "alt_km": 435.91084973286706,
        "timestamp": "2025-12-26T13:39:18.603763+00:00",
        "meta_object_name": "TIANMU-1 05",
        "meta_object_id": "2023-039C",
        "meta_epoch": "2025-12-26T07:13:35.808960",
        "meta_mean_motion": 15.41279063,
        "meta_eccentricity": 0.00038805,
        "meta_inclination": 97.5094,
        "meta_ra_of_asc_node": 163.0135,
        "meta_arg_of_pericenter": 40.6921,
        "meta_mean_anomaly": 319.4615,
        "meta_ephemeris_type": 0,
        "meta_classification_type": "U",
        "meta_norad_cat_id": 55975,
        "meta_element_set_no": 999,
        "meta_rev_at_epoch": 15413,
        "meta_bstar": 0.00038330672,
        "meta_mean_motion_dot": 0.00015881,
        "meta_mean_motion_ddot": 0,
        "tle_line1": "1 55975U 23039C   25360.30110890  .00015881  00000+0  38331-3 0  9999",
        "tle_line2": "2 55975  97.5094 163.0135 0003880  40.6921 319.4615 15.41279063154138"
      },
      "geometry": {
        "type": "Point",
        "coordinates": [
          155.74856797907023,
          44.84983862546879
        ]
      }
    },
    {
      "type": "Feature",
      "properties": {
        "norad_id": 55976,
        "name": "TIANMU-1 06",
        "group": "weather",
        "lat": 22.76616652633883,
        "lon": 160.59152256608584,
        "alt_km": 437.9901156546566,
        "timestamp": "2025-12-26T13:39:18.603776+00:00",
        "meta_object_name": "TIANMU-1 06",
        "meta_object_id": "2023-039D",
        "meta_epoch": "2025-12-26T05:46:02.385696",
        "meta_mean_motion": 15.41715236,
        "meta_eccentricity": 0.00041201,
        "meta_inclination": 97.5104,
        "meta_ra_of_asc_node": 163.4273,
        "meta_arg_of_pericenter": 34.7236,
        "meta_mean_anomaly": 325.4279,
        "meta_ephemeris_type": 0,
        "meta_classification_type": "U",
        "meta_norad_cat_id": 55976,
        "meta_element_set_no": 999,
        "meta_rev_at_epoch": 15414,
        "meta_bstar": 0.00038247796,
        "meta_mean_motion_dot": 0.00016079,
        "meta_mean_motion_ddot": 0,
        "tle_line1": "1 55976U 23039D   25360.24030539  .00016079  00000+0  38248-3 0  9991",
        "tle_line2": "2 55976  97.5104 163.4273 0004120  34.7236 325.4279 15.41715236154140"
      },
      "geometry": {
        "type": "Point",
        "coordinates": [
          160.59152256608584,
          22.76616652633883
        ]
      }
    },
    {
      "type": "Feature",
      "properties": {
        "norad_id": 56232,
        "name": "FENGYUN 3G",
        "group": "weather",
        "lat": 49.75698395310935,
        "lon": -106.83734986456702,
        "alt_km": 405.9451806844163,
        "timestamp": "2025-12-26T13:39:18.603787+00:00",
        "meta_object_name": "FENGYUN 3G",
        "meta_object_id": "2023-055A",
        "meta_epoch": "2025-12-26T07:04:09.582240",
        "meta_mean_motion": 15.52123903,
        "meta_eccentricity": 0.00039466,
        "meta_inclination": 49.9929,
        "meta_ra_of_asc_node": 157.5032,
        "meta_arg_of_pericenter": 294.3458,
        "meta_mean_anomaly": 65.7096,
        "meta_ephemeris_type": 0,
        "meta_classification_type": "U",
        "meta_norad_cat_id": 56232,
        "meta_element_set_no": 999,
        "meta_rev_at_epoch": 15313,
        "meta_bstar": 0.00047672624,
        "meta_mean_motion_dot": 0.0002904,
        "meta_mean_motion_ddot": 0,
        "tle_line1": "1 56232U 23055A   25360.29455535  .00029040  00000+0  47673-3 0  9991",
        "tle_line2": "2 56232  49.9929 157.5032 0003946 294.3458  65.7096 15.52123903153139"
      },
      "geometry": {
        "type": "Point",
        "coordinates": [
          -106.83734986456702,
          49.75698395310935
        ]
      }
    },
    {
      "type": "Feature",
      "properties": {
        "norad_id": 57166,
        "name": "METEOR-M2 3",
        "group": "weather",
        "lat": -2.628887386595692,
        "lon": -126.53428625800385,
        "alt_km": 816.8518585659849,
        "timestamp": "2025-12-26T13:39:18.603800+00:00",
        "meta_object_name": "METEOR-M2 3",
        "meta_object_id": "2023-091A",
        "meta_epoch": "2025-12-26T07:44:29.440608",
        "meta_mean_motion": 14.24027662,
        "meta_eccentricity": 0.00031963,
        "meta_inclination": 98.636,
        "meta_ra_of_asc_node": 53.6235,
        "meta_arg_of_pericenter": 326.006,
        "meta_mean_anomaly": 34.0914,
        "meta_ephemeris_type": 0,
        "meta_classification_type": "U",
        "meta_norad_cat_id": 57166,
        "meta_element_set_no": 999,
        "meta_rev_at_epoch": 12991,
        "meta_bstar": 1.9351232e-05,
        "meta_mean_motion_dot": 1e-08,
        "meta_mean_motion_ddot": 0,
        "tle_line1": "1 57166U 23091A   25360.32256297  .00000001  00000+0  19351-4 0  9995",
        "tle_line2": "2 57166  98.6360  53.6235 0003196 326.0060  34.0914 14.24027662129916"
      },
      "geometry": {
        "type": "Point",
        "coordinates": [
          -126.53428625800385,
          -2.628887386595692
        ]
      }
    },
    {
      "type": "Feature",
      "properties": {
        "norad_id": 57399,
        "name": "TIANMU-1 07",
        "group": "weather",
        "lat": 34.14739923700313,
        "lon": -124.9083461054763,
        "alt_km": 479.46518227270826,
        "timestamp": "2025-12-26T13:39:18.603811+00:00",
        "meta_object_name": "TIANMU-1 07",
        "meta_object_id": "2023-101A",
        "meta_epoch": "2025-12-26T06:44:08.128032",
        "meta_mean_motion": 15.28263322,
        "meta_eccentricity": 0.00049204,
        "meta_inclination": 97.2856,
        "meta_ra_of_asc_node": 49.8316,
        "meta_arg_of_pericenter": 46.5698,
        "meta_mean_anomaly": 313.5951,
        "meta_ephemeris_type": 0,
        "meta_classification_type": "U",
        "meta_norad_cat_id": 57399,
        "meta_element_set_no": 999,
        "meta_rev_at_epoch": 13522,
        "meta_bstar": 0.00027916336,
        "meta_mean_motion_dot": 7.617e-05,
        "meta_mean_motion_ddot": 0,
        "tle_line1": "1 57399U 23101A   25360.28064963  .00007617  00000+0  27916-3 0  9992",
        "tle_line2": "2 57399  97.2856  49.8316 0004920  46.5698 313.5951 15.28263322135220"
      },
      "geometry": {
        "type": "Point",
        "coordinates": [
          -124.9083461054763,
          34.14739923700313
        ]
      }
    }
  ]
}